*******************************************************************************
 Revised: Sep 29, 2017            Thelxinoe / (Jupiter)                     542

 Recently discovered irregular Jovian satellite.
*******************************************************************************
 
 
*******************************************************************************
Ephemeris / WWW_USER Sun Nov 12 11:28:33 2017 Pasadena, USA      / Horizons    
*******************************************************************************
Target body name: Thelxinoe (542)                 {source: jup341}
Center body name: Solar System Barycenter (0)     {source: DE431mx}
Center-site name: BODY CENTER
*******************************************************************************
Start time      : A.D. 2017-Jul-10 00:00:00.0000 TDB
Stop  time      : A.D. 2020-Aug-13 00:00:00.0000 TDB
Step-size       : 1440 minutes
*******************************************************************************
Center geodetic : 0.00000000,0.00000000,0.0000000 {E-lon(deg),Lat(deg),Alt(km)}
Center cylindric: 0.00000000,0.00000000,0.0000000 {E-lon(deg),Dxy(km),Dz(km)}
Center radii    : (undefined)                                                  
Output units    : KM-S                                                         
Output type     : GEOMETRIC cartesian states
Output format   : 3 (position, velocity, LT, range, range-rate)
Reference frame : ICRF/J2000.0                                                 
Coordinate systm: Ecliptic and Mean Equinox of Reference Epoch                 
*******************************************************************************
            JDTDB,            Calendar Date (TDB),                      X,                      Y,                      Z,                     VX,                     VY,                     VZ,                     LT,                     RG,                     RR,
**************************************************************************************************************************************************************************************************************************************************************************
$$SOE
2458002.500000000, A.D. 2017-Sep-06 00:00:00.0000, -7.257176210221725E+08, -4.058803229749259E+08,  2.247758322937496E+07,  5.481503848617319E+00, -8.386302878075563E+00,  1.134310381341491E+00,  2.774624047091690E+03,  8.318113631035255E+08, -6.596352012694812E-01,
2458003.500000000, A.D. 2017-Sep-07 00:00:00.0000, -7.252421475870969E+08, -4.066040761090407E+08,  2.257519312084475E+07,  5.524829445289297E+00, -8.367304210141226E+00,  1.125151152468334E+00,  2.774428634194563E+03,  8.317527797907708E+08, -6.964312997605852E-01,
2458004.500000000, A.D. 2017-Sep-08 00:00:00.0000, -7.247629299325200E+08, -4.073262039096767E+08,  2.267200477713473E+07,  5.568174540734728E+00, -8.348679400839314E+00,  1.115833195978186E+00,  2.774222641845855E+03,  8.316910248382226E+08, -7.330515933902996E-01,
2458005.500000000, A.D. 2017-Sep-09 00:00:00.0000, -7.242799666467440E+08, -4.080467386719447E+08,  2.276800460938483E+07,  5.611532821565682E+00, -8.330428282063320E+00,  1.106359417136444E+00,  2.774006121740853E+03,  8.316261137437376E+08, -7.694889635132659E-01,
2458006.500000000, A.D. 2017-Sep-10 00:00:00.0000, -7.237932568620297E+08, -4.087657126700450E+08,  2.286317928147390E+07,  5.654898012220555E+00, -8.312550534198436E+00,  1.096732758731855E+00,  2.773779127609887E+03,  8.315580626152636E+08, -8.057364106077948E-01,
2458007.500000000, A.D. 2017-Sep-11 00:00:00.0000, -7.233028002498350E+08, -4.094831581440007E+08,  2.295751571233021E+07,  5.698263914442689E+00, -8.295045690533787E+00,  1.086956178219892E+00,  2.773541715179204E+03,  8.314868881591094E+08, -8.417870876833252E-01,
2458008.500000000, A.D. 2017-Sep-12 00:00:00.0000, -7.228085970131021E+08, -4.101991072883502E+08,  2.305100107680315E+07,  5.741624418872266E+00, -8.277913168862984E+00,  1.077032645457798E+00,  2.773293942126206E+03,  8.314126076665250E+08, -8.776342953000116E-01,
2458009.500000000, A.D. 2017-Sep-13 00:00:00.0000, -7.223106478805563E+08, -4.109135922424365E+08,  2.314362280787608E+07,  5.784973454883503E+00, -8.261152268706750E+00,  1.066965170203304E+00,  2.773035868043171E+03,  8.313352390028259E+08, -9.132714388903366E-01,
2458010.500000000, A.D. 2017-Sep-14 00:00:00.0000, -7.218089541044995E+08, -4.116266450785070E+08,  2.323536860048017E+07,  5.828304980951695E+00, -8.244762130801272E+00,  1.056756800852536E+00,  2.772767554407523E+03,  8.312548005984800E+08, -9.486920409651663E-01,
2458011.500000000, A.D. 2017-Sep-15 00:00:00.0000, -7.213035174550405E+08, -4.123382977871093E+08,  2.332622641281869E+07,  5.871613068396562E+00, -8.228741727699516E+00,  1.046410574608921E+00,  2.772489064536917E+03,  8.311713114356431E+08, -9.838898205514791E-01,
2458012.500000000, A.D. 2017-Sep-16 00:00:00.0000, -7.207943402081552E+08, -4.130485822645735E+08,  2.341618446438639E+07,  5.914891923091758E+00, -8.213089916632148E+00,  1.035929511225288E+00,  2.772200463529425E+03,  8.310847910302258E+08, -1.018858686433775E+00,
2458013.500000000, A.D. 2017-Sep-17 00:00:00.0000, -7.202814251395848E+08, -4.137575303047656E+08,  2.350523123775364E+07,  5.958135749199837E+00, -8.197805462654921E+00,  1.025316691670680E+00,  2.771901818227949E+03,  8.309952594212259E+08, -1.053592605500414E+00,
2458014.500000000, A.D. 2017-Sep-18 00:00:00.0000, -7.197647755231811E+08, -4.144651735879657E+08,  2.359335548236234E+07,  6.001338891073357E+00, -8.182886955280456E+00,  1.014575165746777E+00,  2.771593197192813E+03,  8.309027371625123E+08, -1.088085770350604E+00,
2458015.500000000, A.D. 2017-Sep-19 00:00:00.0000, -7.192443951038647E+08, -4.151715436661646E+08,  2.368054620333342E+07,  6.044495885339008E+00, -8.168332897660118E+00,  1.003707929099959E+00,  2.771274670593485E+03,  8.308072452903612E+08, -1.122332600917799E+00,
2458016.500000000, A.D. 2017-Sep-20 00:00:00.0000, -7.187202881216682E+08, -4.158766719650493E+08,  2.376679268079565E+07,  6.087601151823338E+00, -8.154141704645394E+00,  9.927181009902051E-01,  2.770946310278488E+03,  8.307088053444184E+08, -1.156327472963237E+00,
2458017.500000000, A.D. 2017-Sep-21 00:00:00.0000, -7.181924592727550E+08, -4.165805897584743E+08,  2.385208445096850E+07,  6.130649259510919E+00, -8.140311717047361E+00,  9.816087764423425E-01,  2.770608189613677E+03,  8.306074393192145E+08, -1.190064945840237E+00,
2458018.500000000, A.D. 2017-Sep-22 00:00:00.0000, -7.176609137279022E+08, -4.172833281772695E+08,  2.393641132346414E+07,  6.173634922098576E+00, -8.126841030983556E+00,  9.703830032525733E-01,  2.770260383547085E+03,  8.305031696836034E+08, -1.223539845030707E+00,
2458019.500000000, A.D. 2017-Sep-23 00:00:00.0000, -7.171256571063972E+08, -4.179849181812208E+08,  2.401976336812259E+07,  6.216552941120035E+00, -8.113727720642496E+00,  9.590438348531451E-01,  2.769902968480548E+03,  8.303960193422799E+08, -1.256747100297654E+00,
2458020.500000000, A.D. 2017-Sep-24 00:00:00.0000, -7.165866954767478E+08, -4.186853905617336E+08,  2.410213092151131E+07,  6.259398151195935E+00, -8.100969763298975E+00,  9.475943649296301E-01,  2.769536022271770E+03,  8.302860116363965E+08, -1.289681735103163E+00,
2458021.500000000, A.D. 2017-Sep-25 00:00:00.0000, -7.160440353471386E+08, -4.193847759275696E+08,  2.418350458529283E+07,  6.302165543314502E+00, -8.088564973358951E+00,  9.360376343023269E-01,  2.769159624177618E+03,  8.301731703265644E+08, -1.322339009438105E+00,
2458022.500000000, A.D. 2017-Sep-26 00:00:00.0000, -7.154976836529362E+08, -4.200831046959053E+08,  2.426387522253273E+07,  6.344850226747551E+00, -8.076511111045933E+00,  9.243766616190903E-01,  2.768773854797549E+03,  8.300575195758923E+08, -1.354714331510334E+00,
2458023.500000000, A.D. 2017-Sep-27 00:00:00.0000, -7.149476477487576E+08, -4.207804070880195E+08,  2.434323395744067E+07,  6.387447385215486E+00, -8.064805871897111E+00,  9.126144742606574E-01,  2.768378796038246E+03,  8.299390839393862E+08, -1.386803224392109E+00,
2458024.500000000, A.D. 2017-Sep-28 00:00:00.0000, -7.143939354018360E+08, -4.214767131215339E+08,  2.442157217583546E+07,  6.429952288110088E+00, -8.053446843778730E+00,  9.007540969993100E-01,  2.767974531076215E+03,  8.298178883527360E+08, -1.418601358038230E+00,
2458025.500000000, A.D. 2017-Sep-29 00:00:00.0000, -7.138365547836654E+08, -4.221720526014932E+08,  2.449888152417094E+07,  6.472360309028163E+00, -8.042431524461051E+00,  8.887985377809393E-01,  2.767561144313243E+03,  8.296939581189598E+08, -1.450104557080636E+00,
2458026.500000000, A.D. 2017-Sep-30 00:00:00.0000, -7.132755144611944E+08, -4.228664551138847E+08,  2.457515390827307E+07,  6.514666917460316E+00, -8.031757345254855E+00,  8.767507948378190E-01,  2.767138721334573E+03,  8.295673188958687E+08, -1.481308781649239E+00,
2458027.500000000, A.D. 2017-Oct-01 00:00:00.0000, -7.127108233890703E+08, -4.235599500190769E+08,  2.465038149286248E+07,  6.556867670492364E+00, -8.021421645418393E+00,  8.646138615565055E-01,  2.766707348870002E+03,  8.294379966844014E+08, -1.512210133315484E+00,
2458028.500000000, A.D. 2017-Oct-02 00:00:00.0000, -7.121424909012277E+08, -4.242525664426631E+08,  2.472455670034517E+07,  6.598958237762998E+00, -8.011421653710638E+00,  8.523907039153884E-01,  2.766267114748525E+03,  8.293060178150283E+08, -1.542804886950943E+00,
2458029.500000000, A.D. 2017-Oct-03 00:00:00.0000, -7.115705266997000E+08, -4.249443332677407E+08,  2.479767220720981E+07,  6.640934429820448E+00, -8.001754540630818E+00,  8.400842366399282E-01,  2.765818107847145E+03,  8.291714089324048E+08, -1.573089489322612E+00,
2458030.500000000, A.D. 2017-Oct-04 00:00:00.0000, -7.109949408433918E+08, -4.256352791322058E+08,  2.486972094034573E+07,  6.682792162971082E+00, -7.992417455807883E+00,  8.276973509525662E-01,  2.765360418048105E+03,  8.290341969825488E+08, -1.603060508881670E+00,
